{
    "links": {
        "self": "http://www.neowsapp.com/rest/v1/neo/3071222?api_key=iIulBulltgU6a56xZRHN4H3l9WmuAYTsLGpBGhQ2"
    },
    "id": "3071222",
    "neo_reference_id": "3071222",
    "name": "(2000 WH63)",
    "designation": "2000 WH63",
    "nasa_jpl_url": "http://ssd.jpl.nasa.gov/sbdb.cgi?sstr=3071222",
    "absolute_magnitude_h": 21.7,
    "estimated_diameter": {
        "kilometers": {
            "estimated_diameter_min": 0.1214940408,
            "estimated_diameter_max": 0.2716689341
        },
        "meters": {
            "estimated_diameter_min": 121.4940407996,
            "estimated_diameter_max": 271.6689340891
        },
        "miles": {
            "estimated_diameter_min": 0.0754928736,
            "estimated_diameter_max": 0.1688071972
        },
        "feet": {
            "estimated_diameter_min": 398.6025088171,
            "estimated_diameter_max": 891.3023057169
        }
    },
    "is_potentially_hazardous_asteroid": false,
    "close_approach_data": [
        {
            "close_approach_date": "1949-11-27",
            "close_approach_date_full": "1949-Nov-27 16:06",
            "epoch_date_close_approach": -634118040000,
            "relative_velocity": {
                "kilometers_per_second": "14.9960607537",
                "kilometers_per_hour": "53985.8187133495",
                "miles_per_hour": "33544.6882999699"
            },
            "miss_distance": {
                "astronomical": "0.3486280784",
                "lunar": "135.6163224976",
                "kilometers": "52154017.950833008",
                "miles": "32407004.0219031904"
            },
            "orbiting_body": "Earth"
        },
        {
            "close_approach_date": "2000-11-11",
            "close_approach_date_full": "2000-Nov-11 17:05",
            "epoch_date_close_approach": 973962300000,
            "relative_velocity": {
                "kilometers_per_second": "9.1801696037",
                "kilometers_per_hour": "33048.6105732871",
                "miles_per_hour": "20535.1213864961"
            },
            "miss_distance": {
                "astronomical": "0.128504298",
                "lunar": "49.988171922",
                "kilometers": "19223969.26664526",
                "miles": "11945220.595054188"
            },
            "orbiting_body": "Earth"
        },
        {
            "close_approach_date": "2011-10-11",
            "close_approach_date_full": "2011-Oct-11 20:37",
            "epoch_date_close_approach": 1318365420000,
            "relative_velocity": {
                "kilometers_per_second": "12.8086155672",
                "kilometers_per_hour": "46111.0160417688",
                "miles_per_hour": "28651.5921621757"
            },
            "miss_distance": {
                "astronomical": "0.3539042773",
                "lunar": "137.6687638697",
                "kilometers": "52943326.067969351",
                "miles": "32897457.3432690038"
            },
            "orbiting_body": "Earth"
        },
        {
            "close_approach_date": "2040-11-28",
            "close_approach_date_full": "2040-Nov-28 10:28",
            "epoch_date_close_approach": 2237711280000,
            "relative_velocity": {
                "kilometers_per_second": "14.9094870018",
                "kilometers_per_hour": "53674.1532065146",
                "miles_per_hour": "33351.0314743479"
            },
            "miss_distance": {
                "astronomical": "0.3436492293",
                "lunar": "133.6795501977",
                "kilometers": "51409192.730421591",
                "miles": "31944191.0908603158"
            },
            "orbiting_body": "Earth"
        }
    ],
    "orbital_data": {
        "orbit_id": "11",
        "orbit_determination_date": "2017-04-06 09:16:40",
        "first_observation_date": "2000-11-26",
        "last_observation_date": "2001-01-24",
        "data_arc_in_days": 59,
        "observations_used": 47,
        "orbit_uncertainty": "6",
        "minimum_orbit_intersection": ".112851",
        "jupiter_tisserand_invariant": "3.314",
        "epoch_osculation": "2459000.5",
        "eccentricity": ".5364957387797378",
        "semi_major_axis": "2.36411923169801",
        "inclination": "11.94121677561043",
        "ascending_node_longitude": "234.0744833095383",
        "orbital_period": "1327.707751370834",
        "perihelion_distance": "1.0957793379248",
        "perihelion_argument": "164.722115552543",
        "aphelion_distance": "3.63245912547122",
        "perihelion_time": "2458511.301843935105",
        "mean_anomaly": "132.6431483144771",
        "mean_motion": ".2711440071267993",
        "equinox": "J2000",
        "orbit_class": {
            "orbit_class_type": "AMO",
            "orbit_class_description": "Near-Earth asteroid orbits similar to that of 1221 Amor",
            "orbit_class_range": "1.017 AU < q (perihelion) < 1.3 AU"
        }
    },
    "is_sentry_object": false
}